ONEWEB-0331             
1 49198U 21083N   25328.66013743 -.00000089  00000+0 -25736-3 0  9999
2 49198  87.9198  16.0687 0001478 101.8245 258.3053 13.18688054203054
ONEWEB-0333             
1 49199U 21083P   25328.60332916  .00000028  00000+0  41886-4 0  9996
2 49199  87.8977   0.9208 0001853  97.3674 262.7665 13.13470345204058
ONEWEB-0334             
1 49200U 21083Q   25328.67495093  .00000094  00000+0  19977-3 0  9990
2 49200  87.9181 315.2481 0002873  88.0318 272.1145 13.20770234209791
ONEWEB-0335             
1 49201U 21083R   25328.59824838 -.00000118  00000+0 -35704-3 0  9990
2 49201  87.8982   0.9102 0001641  98.0777 262.0538 13.13470463204062
ONEWEB-0336             
1 49202U 21083S   25328.64564358 -.00000079  00000+0 -25241-3 0  9996
2 49202  87.8990   0.8961 0001400  97.9976 262.1312 13.13469160204069
ONEWEB-0337             
1 49203U 21083T   25328.65565894 -.00000194  00000+0 -56518-3 0  9993
2 49203  87.8991   0.9054 0001627  89.1790 270.9525 13.13469332204067
ONEWEB-0338             
1 49204U 21083U   25328.72547365 -.00000027  00000+0 -99450-4 0  9993
2 49204  87.9183 315.2405 0002164  85.9105 274.2275 13.20771289209828
ONEWEB-0339             
1 49205U 21083V   25328.58808955 -.00000301  00000+0 -86009-3 0  9993
2 49205  87.8990   0.9005 0001888  87.8136 272.3209 13.13470019204038
